ALOS (DAICHI)           
1 28931U 06002A   25351.73419158  .00001110  00000+0  19545-3 0  9994
2 28931  98.1098 303.1864 0001361 113.5739 246.5610 14.69501788 61443
H-2A R/B                
1 28932U 06002B   26003.12178574  .00016108  00000+0  83190-3 0  9997
2 28932  98.2331 144.6265 0054761 104.2955 256.4364 15.15074105 84505
RESURS-DK 1             
1 29228U 06021A   26003.12958854  .00005075  00000+0  29829-3 0  9994
2 29228  69.9344  46.5534 0006964 241.1908 118.8559 15.12310075 77610
CZ-4B R/B               
1 29507U 06046C   26003.08901357  .00008527  00000+0  43893-3 0  9994
2 29507  97.5702  48.1696 0034899 133.1709 227.2449 15.16128746 50103
CZ-2C R/B               
1 31114U 07010B   26003.06577791  .00000314  00000+0  16291-3 0  9990
2 31114  98.3975 119.6436 0059834 124.5298 236.1548 14.20220381970405
COSMO-SKYMED 1          
1 31598U 07023A   26003.19392750  .00007213  00000+0  64869-3 0  9993
2 31598  97.8826 193.7360 0001319  89.0670 271.0701 14.95959400  5112
COSMOS 2428             
1 31792U 07029A   26003.11924718  .00000341  00000+0  20901-3 0  9996
2 31792  70.9380 340.9909 0004910 353.7346   6.3713 14.12901190954837
SL-16 R/B               
1 31793U 07029B   26003.17195310  .00000170  00000+0  11286-3 0  9997
2 31793  70.9775 310.1052 0002089 270.8275 184.0942 14.14825125956104
KORONAS-FOTON           
1 33504U 09003A   26002.98257130  .00015795  00000+0  37277-3 0  9997
2 33504  82.4308 344.0854 0012589  42.9101 317.3125 15.41658690935613
CZ-2C R/B               
1 37731U 11030B   26003.13778796  .00002394  00000+0  30901-3 0  9998
2 37731  97.8438 321.7747 0052104 202.2285 168.1303 14.80979369780391
H-2A R/B                
1 38341U 12025E   26003.13136602  .00004591  00000+0  42180-3 0  9998
2 38341  98.4627 325.0158 0045103 165.4867 194.7658 14.94607254738427
SHIJIAN-16 (SJ-16)      
1 39358U 13057A   26003.19350274  .00004097  00000+0  40473-3 0  9996
2 39358  74.9742 309.0579 0017979 270.2330  89.6798 14.92084499661736
